SWAS                    
1 25560U 98071A   26068.53487068  .00004636  00000+0  29986-3 0  9991
2 25560  69.8952 124.3662 0004099  14.3215 345.8065 15.08888192482231
STARLINK-3312           
1 50850U 22001AZ  26068.47365004 -.00000754  00000+0 -29322-4 0  9993
2 50850  53.2172 140.0908 0001284  96.2045 263.9093 15.08837152231337
